KUIPER-00008            
1 63724U 25088A   26204.20089325  .00000302  00000+0  68565-4 0  9996
2 63724  51.8993 208.7777 0000599  57.7316 302.3704 14.79931658 68117
KUIPER-00009            
1 63725U 25088B   26204.47742113  .00001566  00000+0  22786-3 0  9994
2 63725  51.9017 225.1020 0000387  61.2538 298.8464 14.81166202 67907
KUIPER-00010            
1 63726U 25088C   26204.51018294  .00000603  00000+0  10805-3 0  9996
2 63726  51.9008 202.5134 0000379  61.7928 298.3073 14.79933700 67848
KUIPER-00011            
1 63727U 25088D   26204.40076866  .00000520  00000+0  97152-4 0  9993
2 63727  51.8991 210.5463 0000380  40.4857 319.6133 14.79944509 67854
KUIPER-00012            
1 63728U 25088E   26204.18062588  .00000894  00000+0  14624-3 0  9991
2 63728  51.9006 196.4551 0000458  62.1766 297.9242 14.79933867 67987
KUIPER-00013            
1 63729U 25088F   26204.31437419  .00000875  00000+0  14369-3 0  9991
2 63729  51.9003 228.3829 0000284  36.3883 323.7098 14.79942188 67655
KUIPER-00014            
1 63730U 25088G   26204.48321061  .00000536  00000+0  99282-4 0  9998
2 63730  51.9003 227.5803 0000374  57.8801 302.2198 14.79938748 67490
KUIPER-00015            
1 63731U 25088H   26204.37108943 -.00001413  00000+0 -15638-3 0  9998
2 63731  51.8985 238.1349 0000179 111.0951 249.0030 14.79936023 67794
KUIPER-00016            
1 63732U 25088J   26204.48045741  .00000956  00000+0  15432-3 0  9998
2 63732  51.8986 230.1044 0000392  65.0358 295.0645 14.79935895 67458
KUIPER-00018            
1 63733U 25088K   26204.45754384  .00000472  00000+0  90862-4 0  9990
2 63733  51.9018 220.2385 0000357  50.5911 309.5083 14.79934497 67598
KUIPER-00019            
1 63734U 25088L   26204.34914877  .00000722  00000+0  12366-3 0  9994
2 63734  51.8993 219.4743 0000377  60.6490 299.4510 14.79935835 67593
KUIPER-00020            
1 63735U 25088M   26204.25230778  .00000630  00000+0  11167-3 0  9992
2 63735  51.9008 223.6493 0000500  55.3572 304.7437 14.79926554 67733
KUIPER-00021            
1 63736U 25088N   26204.35349102  .00000666  00000+0  11629-3 0  9998
2 63736  51.8991 223.1559 0000366  52.4762 307.6234 14.79948575 67588
KUIPER-00023            
1 63737U 25088P   26204.24957131  .00001386  00000+0  21081-3 0  9997
2 63737  51.8998 226.1052 0000321  56.5533 303.5460 14.79923117 67838
KUIPER-00024            
1 63738U 25088Q   26204.33054177  .00000478  00000+0  91612-4 0  9995
2 63738  51.9023 213.3472 0000440  50.0396 310.0605 14.79943652 68146
KUIPER-00025            
1 63739U 25088R   26204.42374969  .00000957  00000+0  15450-3 0  9997
2 63739  51.9018 220.4164 0000491  38.3833 321.7164 14.79936727 67917
