{"fetched_at":"2026-07-24T07:06:06.293Z","source":"https://celestrak.org/NORAD/elements/gp.php?GROUP=kuiper&FORMAT=JSON","constellation":"kuiper","records":[{"OBJECT_NAME":"KUIPER-00008","OBJECT_ID":"2025-088A","EPOCH":"2026-07-23T04:49:17.176800","CLASSIFICATION_TYPE":"U","MEAN_MOTION":14.79931658,"ECCENTRICITY":0.0000599,"INCLINATION":51.8993,"RA_OF_ASC_NODE":208.7777,"ARG_OF_PERICENTER":57.7316,"MEAN_ANOMALY":302.3704,"EPHEMERIS_TYPE":0,"NORAD_CAT_ID":63724,"ELEMENT_SET_NO":999,"REV_AT_EPOCH":6811,"BSTAR":0.000068565,"MEAN_MOTION_DOT":0.00000302,"MEAN_MOTION_DDOT":0},{"OBJECT_NAME":"KUIPER-00009","OBJECT_ID":"2025-088B","EPOCH":"2026-07-23T11:27:29.185632","CLASSIFICATION_TYPE":"U","MEAN_MOTION":14.81166202,"ECCENTRICITY":0.0000387,"INCLINATION":51.9017,"RA_OF_ASC_NODE":225.102,"ARG_OF_PERICENTER":61.2538,"MEAN_ANOMALY":298.8464,"EPHEMERIS_TYPE":0,"NORAD_CAT_ID":63725,"ELEMENT_SET_NO":999,"REV_AT_EPOCH":6790,"BSTAR":0.00022786,"MEAN_MOTION_DOT":0.00001566,"MEAN_MOTION_DDOT":0},{"OBJECT_NAME":"KUIPER-00010","OBJECT_ID":"2025-088C","EPOCH":"2026-07-23T12:14:39.806016","CLASSIFICATION_TYPE":"U","MEAN_MOTION":14.799337,"ECCENTRICITY":0.0000379,"INCLINATION":51.9008,"RA_OF_ASC_NODE":202.5134,"ARG_OF_PERICENTER":61.7928,"MEAN_ANOMALY":298.3073,"EPHEMERIS_TYPE":0,"NORAD_CAT_ID":63726,"ELEMENT_SET_NO":999,"REV_AT_EPOCH":6784,"BSTAR":0.00010805,"MEAN_MOTION_DOT":0.00000603,"MEAN_MOTION_DDOT":0},{"OBJECT_NAME":"KUIPER-00011","OBJECT_ID":"2025-088D","EPOCH":"2026-07-23T09:37:06.412224","CLASSIFICATION_TYPE":"U","MEAN_MOTION":14.79944509,"ECCENTRICITY":0.000038,"INCLINATION":51.8991,"RA_OF_ASC_NODE":210.5463,"ARG_OF_PERICENTER":40.4857,"MEAN_ANOMALY":319.6133,"EPHEMERIS_TYPE":0,"NORAD_CAT_ID":63727,"ELEMENT_SET_NO":999,"REV_AT_EPOCH":6785,"BSTAR":0.000097152,"MEAN_MOTION_DOT":0.0000052,"MEAN_MOTION_DDOT":0},{"OBJECT_NAME":"KUIPER-00012","OBJECT_ID":"2025-088E","EPOCH":"2026-07-23T04:20:06.076032","CLASSIFICATION_TYPE":"U","MEAN_MOTION":14.79933867,"ECCENTRICITY":0.0000458,"INCLINATION":51.9006,"RA_OF_ASC_NODE":196.4551,"ARG_OF_PERICENTER":62.1766,"MEAN_ANOMALY":297.9242,"EPHEMERIS_TYPE":0,"NORAD_CAT_ID":63728,"ELEMENT_SET_NO":999,"REV_AT_EPOCH":6798,"BSTAR":0.00014624,"MEAN_MOTION_DOT":0.00000894,"MEAN_MOTION_DDOT":0},{"OBJECT_NAME":"KUIPER-00013","OBJECT_ID":"2025-088F","EPOCH":"2026-07-23T07:32:41.930016","CLASSIFICATION_TYPE":"U","MEAN_MOTION":14.79942188,"ECCENTRICITY":0.0000284,"INCLINATION":51.9003,"RA_OF_ASC_NODE":228.3829,"ARG_OF_PERICENTER":36.3883,"MEAN_ANOMALY":323.7098,"EPHEMERIS_TYPE":0,"NORAD_CAT_ID":63729,"ELEMENT_SET_NO":999,"REV_AT_EPOCH":6765,"BSTAR":0.00014369,"MEAN_MOTION_DOT":0.00000875,"MEAN_MOTION_DDOT":0},{"OBJECT_NAME":"KUIPER-00014","OBJECT_ID":"2025-088G","EPOCH":"2026-07-23T11:35:49.396704","CLASSIFICATION_TYPE":"U","MEAN_MOTION":14.79938748,"ECCENTRICITY":0.0000374,"INCLINATION":51.9003,"RA_OF_ASC_NODE":227.5803,"ARG_OF_PERICENTER":57.8801,"MEAN_ANOMALY":302.2198,"EPHEMERIS_TYPE":0,"NORAD_CAT_ID":63730,"ELEMENT_SET_NO":999,"REV_AT_EPOCH":6749,"BSTAR":0.000099282,"MEAN_MOTION_DOT":0.00000536,"MEAN_MOTION_DDOT":0},{"OBJECT_NAME":"KUIPER-00015","OBJECT_ID":"2025-088H","EPOCH":"2026-07-23T08:54:22.126752","CLASSIFICATION_TYPE":"U","MEAN_MOTION":14.79936023,"ECCENTRICITY":0.0000179,"INCLINATION":51.8985,"RA_OF_ASC_NODE":238.1349,"ARG_OF_PERICENTER":111.0951,"MEAN_ANOMALY":249.003,"EPHEMERIS_TYPE":0,"NORAD_CAT_ID":63731,"ELEMENT_SET_NO":999,"REV_AT_EPOCH":6779,"BSTAR":-0.00015638,"MEAN_MOTION_DOT":-0.00001413,"MEAN_MOTION_DDOT":0},{"OBJECT_NAME":"KUIPER-00016","OBJECT_ID":"2025-088J","EPOCH":"2026-07-23T11:31:51.520224","CLASSIFICATION_TYPE":"U","MEAN_MOTION":14.79935895,"ECCENTRICITY":0.0000392,"INCLINATION":51.8986,"RA_OF_ASC_NODE":230.1044,"ARG_OF_PERICENTER":65.0358,"MEAN_ANOMALY":295.0645,"EPHEMERIS_TYPE":0,"NORAD_CAT_ID":63732,"ELEMENT_SET_NO":999,"REV_AT_EPOCH":6745,"BSTAR":0.00015432,"MEAN_MOTION_DOT":0.00000956,"MEAN_MOTION_DDOT":0},{"OBJECT_NAME":"KUIPER-00018","OBJECT_ID":"2025-088K","EPOCH":"2026-07-23T10:58:51.787776","CLASSIFICATION_TYPE":"U","MEAN_MOTION":14.79934497,"ECCENTRICITY":0.0000357,"INCLINATION":51.9018,"RA_OF_ASC_NODE":220.2385,"ARG_OF_PERICENTER":50.5911,"MEAN_ANOMALY":309.5083,"EPHEMERIS_TYPE":0,"NORAD_CAT_ID":63733,"ELEMENT_SET_NO":999,"REV_AT_EPOCH":6759,"BSTAR":0.000090862,"MEAN_MOTION_DOT":0.00000472,"MEAN_MOTION_DDOT":0},{"OBJECT_NAME":"KUIPER-00019","OBJECT_ID":"2025-088L","EPOCH":"2026-07-23T08:22:46.453728","CLASSIFICATION_TYPE":"U","MEAN_MOTION":14.79935835,"ECCENTRICITY":0.0000377,"INCLINATION":51.8993,"RA_OF_ASC_NODE":219.4743,"ARG_OF_PERICENTER":60.649,"MEAN_ANOMALY":299.451,"EPHEMERIS_TYPE":0,"NORAD_CAT_ID":63734,"ELEMENT_SET_NO":999,"REV_AT_EPOCH":6759,"BSTAR":0.00012366,"MEAN_MOTION_DOT":0.00000722,"MEAN_MOTION_DDOT":0},{"OBJECT_NAME":"KUIPER-00020","OBJECT_ID":"2025-088M","EPOCH":"2026-07-23T06:03:19.392192","CLASSIFICATION_TYPE":"U","MEAN_MOTION":14.79926554,"ECCENTRICITY":0.00005,"INCLINATION":51.9008,"RA_OF_ASC_NODE":223.6493,"ARG_OF_PERICENTER":55.3572,"MEAN_ANOMALY":304.7437,"EPHEMERIS_TYPE":0,"NORAD_CAT_ID":63735,"ELEMENT_SET_NO":999,"REV_AT_EPOCH":6773,"BSTAR":0.00011167,"MEAN_MOTION_DOT":0.0000063,"MEAN_MOTION_DDOT":0},{"OBJECT_NAME":"KUIPER-00021","OBJECT_ID":"2025-088N","EPOCH":"2026-07-23T08:29:01.624128","CLASSIFICATION_TYPE":"U","MEAN_MOTION":14.79948575,"ECCENTRICITY":0.0000366,"INCLINATION":51.8991,"RA_OF_ASC_NODE":223.1559,"ARG_OF_PERICENTER":52.4762,"MEAN_ANOMALY":307.6234,"EPHEMERIS_TYPE":0,"NORAD_CAT_ID":63736,"ELEMENT_SET_NO":999,"REV_AT_EPOCH":6758,"BSTAR":0.00011629,"MEAN_MOTION_DOT":0.00000666,"MEAN_MOTION_DDOT":0},{"OBJECT_NAME":"KUIPER-00023","OBJECT_ID":"2025-088P","EPOCH":"2026-07-23T05:59:22.961184","CLASSIFICATION_TYPE":"U","MEAN_MOTION":14.79923117,"ECCENTRICITY":0.0000321,"INCLINATION":51.8998,"RA_OF_ASC_NODE":226.1052,"ARG_OF_PERICENTER":56.5533,"MEAN_ANOMALY":303.546,"EPHEMERIS_TYPE":0,"NORAD_CAT_ID":63737,"ELEMENT_SET_NO":999,"REV_AT_EPOCH":6783,"BSTAR":0.00021081,"MEAN_MOTION_DOT":0.00001386,"MEAN_MOTION_DDOT":0},{"OBJECT_NAME":"KUIPER-00024","OBJECT_ID":"2025-088Q","EPOCH":"2026-07-23T07:55:58.808928","CLASSIFICATION_TYPE":"U","MEAN_MOTION":14.79943652,"ECCENTRICITY":0.000044,"INCLINATION":51.9023,"RA_OF_ASC_NODE":213.3472,"ARG_OF_PERICENTER":50.0396,"MEAN_ANOMALY":310.0605,"EPHEMERIS_TYPE":0,"NORAD_CAT_ID":63738,"ELEMENT_SET_NO":999,"REV_AT_EPOCH":6814,"BSTAR":0.000091612,"MEAN_MOTION_DOT":0.00000478,"MEAN_MOTION_DDOT":0},{"OBJECT_NAME":"KUIPER-00025","OBJECT_ID":"2025-088R","EPOCH":"2026-07-23T10:10:11.973216","CLASSIFICATION_TYPE":"U","MEAN_MOTION":14.79936727,"ECCENTRICITY":0.0000491,"INCLINATION":51.9018,"RA_OF_ASC_NODE":220.4164,"ARG_OF_PERICENTER":38.3833,"MEAN_ANOMALY":321.7164,"EPHEMERIS_TYPE":0,"NORAD_CAT_ID":63739,"ELEMENT_SET_NO":999,"REV_AT_EPOCH":6791,"BSTAR":0.0001545,"MEAN_MOTION_DOT":0.00000957,"MEAN_MOTION_DDOT":0}]}
